{"fetched_at":"2026-07-15T17:46:46.517Z","source":"https://celestrak.org/NORAD/elements/gp.php?GROUP=oneweb&FORMAT=JSON","constellation":"oneweb","records":[{"OBJECT_NAME":"ONEWEB-0634","OBJECT_ID":"2023-043AF","EPOCH":"2026-07-15T03:18:43.518816","CLASSIFICATION_TYPE":"U","MEAN_MOTION":13.15547955,"ECCENTRICITY":0.000229,"INCLINATION":87.8983,"RA_OF_ASC_NODE":253.6605,"ARG_OF_PERICENTER":92.0208,"MEAN_ANOMALY":268.1185,"EPHEMERIS_TYPE":0,"NORAD_CAT_ID":56075,"ELEMENT_SET_NO":999,"REV_AT_EPOCH":16007,"BSTAR":0.00031011,"MEAN_MOTION_DOT":0.0000013,"MEAN_MOTION_DDOT":0},{"OBJECT_NAME":"ONEWEB-0635","OBJECT_ID":"2023-043AG","EPOCH":"2026-07-15T03:11:52.544256","CLASSIFICATION_TYPE":"U","MEAN_MOTION":13.15547793,"ECCENTRICITY":0.0001784,"INCLINATION":87.8991,"RA_OF_ASC_NODE":253.6262,"ARG_OF_PERICENTER":97.5138,"MEAN_ANOMALY":262.6195,"EPHEMERIS_TYPE":0,"NORAD_CAT_ID":56076,"ELEMENT_SET_NO":999,"REV_AT_EPOCH":16010,"BSTAR":0.00023698,"MEAN_MOTION_DOT":0.00000102,"MEAN_MOTION_DDOT":0},{"OBJECT_NAME":"ONEWEB-0636","OBJECT_ID":"2023-043AH","EPOCH":"2026-07-15T03:00:27.540864","CLASSIFICATION_TYPE":"U","MEAN_MOTION":13.15547802,"ECCENTRICITY":0.0001877,"INCLINATION":87.8991,"RA_OF_ASC_NODE":253.6333,"ARG_OF_PERICENTER":96.6575,"MEAN_ANOMALY":263.4769,"EPHEMERIS_TYPE":0,"NORAD_CAT_ID":56077,"ELEMENT_SET_NO":999,"REV_AT_EPOCH":16008,"BSTAR":-0.00018227,"MEAN_MOTION_DOT":-5.6e-7,"MEAN_MOTION_DDOT":0},{"OBJECT_NAME":"ONEWEB-0637","OBJECT_ID":"2023-043AJ","EPOCH":"2026-07-15T02:51:20.152800","CLASSIFICATION_TYPE":"U","MEAN_MOTION":13.15548226,"ECCENTRICITY":0.0001961,"INCLINATION":87.8982,"RA_OF_ASC_NODE":253.6491,"ARG_OF_PERICENTER":89.6959,"MEAN_ANOMALY":270.4396,"EPHEMERIS_TYPE":0,"NORAD_CAT_ID":56078,"ELEMENT_SET_NO":999,"REV_AT_EPOCH":16010,"BSTAR":-0.00016631,"MEAN_MOTION_DOT":-5e-7,"MEAN_MOTION_DDOT":0},{"OBJECT_NAME":"ONEWEB-0647","OBJECT_ID":"2023-043AK","EPOCH":"2026-07-15T02:44:29.224032","CLASSIFICATION_TYPE":"U","MEAN_MOTION":13.15549444,"ECCENTRICITY":0.0001954,"INCLINATION":87.8982,"RA_OF_ASC_NODE":253.6631,"ARG_OF_PERICENTER":101.0928,"MEAN_ANOMALY":259.0422,"EPHEMERIS_TYPE":0,"NORAD_CAT_ID":56079,"ELEMENT_SET_NO":999,"REV_AT_EPOCH":16009,"BSTAR":-0.00016068,"MEAN_MOTION_DOT":-4.8e-7,"MEAN_MOTION_DDOT":0},{"OBJECT_NAME":"ONEWEB-0651","OBJECT_ID":"2023-043AL","EPOCH":"2026-07-15T04:27:10.442592","CLASSIFICATION_TYPE":"U","MEAN_MOTION":13.15548226,"ECCENTRICITY":0.0001852,"INCLINATION":87.8984,"RA_OF_ASC_NODE":253.6417,"ARG_OF_PERICENTER":93.1702,"MEAN_ANOMALY":266.964,"EPHEMERIS_TYPE":0,"NORAD_CAT_ID":56080,"ELEMENT_SET_NO":999,"REV_AT_EPOCH":16130,"BSTAR":0.000036886,"MEAN_MOTION_DOT":2.7e-7,"MEAN_MOTION_DDOT":0},{"OBJECT_NAME":"ONEWEB-0718","OBJECT_ID":"2023-043AM","EPOCH":"2026-07-15T04:20:19.157856","CLASSIFICATION_TYPE":"U","MEAN_MOTION":13.15549569,"ECCENTRICITY":0.0002528,"INCLINATION":87.8989,"RA_OF_ASC_NODE":253.6231,"ARG_OF_PERICENTER":92.6967,"MEAN_ANOMALY":267.4453,"EPHEMERIS_TYPE":0,"NORAD_CAT_ID":56081,"ELEMENT_SET_NO":999,"REV_AT_EPOCH":16011,"BSTAR":-0.00015934,"MEAN_MOTION_DOT":-4.7e-7,"MEAN_MOTION_DDOT":0},{"OBJECT_NAME":"ONEWEB-0561","OBJECT_ID":"2023-068A","EPOCH":"2026-07-15T03:38:45.900096","CLASSIFICATION_TYPE":"U","MEAN_MOTION":13.20770193,"ECCENTRICITY":0.000175,"INCLINATION":87.9185,"RA_OF_ASC_NODE":268.8713,"ARG_OF_PERICENTER":104.3158,"MEAN_ANOMALY":255.817,"EPHEMERIS_TYPE":0,"NORAD_CAT_ID":56710,"ELEMENT_SET_NO":999,"REV_AT_EPOCH":15319,"BSTAR":0.00034316,"MEAN_MOTION_DOT":0.00000153,"MEAN_MOTION_DDOT":0},{"OBJECT_NAME":"ONEWEB-0668","OBJECT_ID":"2023-068B","EPOCH":"2026-07-15T02:12:12.492000","CLASSIFICATION_TYPE":"U","MEAN_MOTION":13.16595793,"ECCENTRICITY":0.0002367,"INCLINATION":87.9081,"RA_OF_ASC_NODE":223.2293,"ARG_OF_PERICENTER":79.437,"MEAN_ANOMALY":280.7028,"EPHEMERIS_TYPE":0,"NORAD_CAT_ID":56711,"ELEMENT_SET_NO":999,"REV_AT_EPOCH":15545,"BSTAR":0.00024608,"MEAN_MOTION_DOT":0.00000107,"MEAN_MOTION_DDOT":0},{"OBJECT_NAME":"ONEWEB-0676","OBJECT_ID":"2023-068C","EPOCH":"2026-07-15T02:23:37.130784","CLASSIFICATION_TYPE":"U","MEAN_MOTION":13.16594545,"ECCENTRICITY":0.0001733,"INCLINATION":87.908,"RA_OF_ASC_NODE":223.2343,"ARG_OF_PERICENTER":91.7435,"MEAN_ANOMALY":268.3895,"EPHEMERIS_TYPE":0,"NORAD_CAT_ID":56712,"ELEMENT_SET_NO":999,"REV_AT_EPOCH":15537,"BSTAR":-0.000098701,"MEAN_MOTION_DOT":-2.5e-7,"MEAN_MOTION_DDOT":0},{"OBJECT_NAME":"ONEWEB-0677","OBJECT_ID":"2023-068D","EPOCH":"2026-07-15T03:21:49.037760","CLASSIFICATION_TYPE":"U","MEAN_MOTION":13.20772166,"ECCENTRICITY":0.0001856,"INCLINATION":87.9185,"RA_OF_ASC_NODE":268.8644,"ARG_OF_PERICENTER":89.1393,"MEAN_ANOMALY":270.9953,"EPHEMERIS_TYPE":0,"NORAD_CAT_ID":56713,"ELEMENT_SET_NO":999,"REV_AT_EPOCH":15349,"BSTAR":0.00013817,"MEAN_MOTION_DOT":6.9e-7,"MEAN_MOTION_DDOT":0},{"OBJECT_NAME":"ONEWEB-0678","OBJECT_ID":"2023-068E","EPOCH":"2026-07-15T03:34:41.750976","CLASSIFICATION_TYPE":"U","MEAN_MOTION":13.155482,"ECCENTRICITY":0.0002036,"INCLINATION":87.8994,"RA_OF_ASC_NODE":253.6244,"ARG_OF_PERICENTER":105.5263,"MEAN_ANOMALY":254.6092,"EPHEMERIS_TYPE":0,"NORAD_CAT_ID":56714,"ELEMENT_SET_NO":999,"REV_AT_EPOCH":15296,"BSTAR":0.00052673,"MEAN_MOTION_DOT":0.00000211,"MEAN_MOTION_DDOT":0},{"OBJECT_NAME":"ONEWEB-0679","OBJECT_ID":"2023-068F","EPOCH":"2026-07-15T03:13:46.229376","CLASSIFICATION_TYPE":"U","MEAN_MOTION":13.16594054,"ECCENTRICITY":0.0001965,"INCLINATION":87.9079,"RA_OF_ASC_NODE":223.2187,"ARG_OF_PERICENTER":77.7222,"MEAN_ANOMALY":282.4128,"EPHEMERIS_TYPE":0,"NORAD_CAT_ID":56715,"ELEMENT_SET_NO":999,"REV_AT_EPOCH":15540,"BSTAR":0.00017828,"MEAN_MOTION_DOT":8.1e-7,"MEAN_MOTION_DDOT":0},{"OBJECT_NAME":"ONEWEB-0680","OBJECT_ID":"2023-068G","EPOCH":"2026-07-15T04:18:07.676928","CLASSIFICATION_TYPE":"U","MEAN_MOTION":13.21825674,"ECCENTRICITY":0.0002244,"INCLINATION":87.9242,"RA_OF_ASC_NODE":238.4023,"ARG_OF_PERICENTER":80.968,"MEAN_ANOMALY":279.1708,"EPHEMERIS_TYPE":0,"NORAD_CAT_ID":56716,"ELEMENT_SET_NO":999,"REV_AT_EPOCH":15479,"BSTAR":-0.00010768,"MEAN_MOTION_DOT":-3.1e-7,"MEAN_MOTION_DDOT":0},{"OBJECT_NAME":"ONEWEB-0681","OBJECT_ID":"2023-068H","EPOCH":"2026-07-15T03:50:15.943200","CLASSIFICATION_TYPE":"U","MEAN_MOTION":13.2182755,"ECCENTRICITY":0.0001096,"INCLINATION":87.9238,"RA_OF_ASC_NODE":238.4065,"ARG_OF_PERICENTER":93.0592,"MEAN_ANOMALY":267.0667,"EPHEMERIS_TYPE":0,"NORAD_CAT_ID":56717,"ELEMENT_SET_NO":999,"REV_AT_EPOCH":15478,"BSTAR":0.00019086,"MEAN_MOTION_DOT":9.2e-7,"MEAN_MOTION_DDOT":0},{"OBJECT_NAME":"ONEWEB-0682","OBJECT_ID":"2023-068J","EPOCH":"2026-07-15T04:08:55.375296","CLASSIFICATION_TYPE":"U","MEAN_MOTION":13.15548257,"ECCENTRICITY":0.0002183,"INCLINATION":87.8994,"RA_OF_ASC_NODE":253.6194,"ARG_OF_PERICENTER":82.0489,"MEAN_ANOMALY":278.0889,"EPHEMERIS_TYPE":0,"NORAD_CAT_ID":56718,"ELEMENT_SET_NO":999,"REV_AT_EPOCH":15313,"BSTAR":0.00001074,"MEAN_MOTION_DOT":1.7e-7,"MEAN_MOTION_DDOT":0}]}
