ONEWEB-0634             
1 56075U 23043AF  26196.13800369  .00000130  00000+0  31011-3 0  9991
2 56075  87.8983 253.6605 0002290  92.0208 268.1185 13.15547955160079
ONEWEB-0635             
1 56076U 23043AG  26196.13324704  .00000102  00000+0  23698-3 0  9997
2 56076  87.8991 253.6262 0001784  97.5138 262.6195 13.15547793160101
ONEWEB-0636             
1 56077U 23043AH  26196.12531876 -.00000056  00000+0 -18227-3 0  9999
2 56077  87.8991 253.6333 0001877  96.6575 263.4769 13.15547802160083
ONEWEB-0637             
1 56078U 23043AJ  26196.11898325 -.00000050  00000+0 -16631-3 0  9995
2 56078  87.8982 253.6491 0001961  89.6959 270.4396 13.15548226160109
ONEWEB-0647             
1 56079U 23043AK  26196.11422713 -.00000048  00000+0 -16068-3 0  9991
2 56079  87.8982 253.6631 0001954 101.0928 259.0422 13.15549444160097
ONEWEB-0651             
1 56080U 23043AL  26196.18553753  .00000027  00000+0  36886-4 0  9995
2 56080  87.8984 253.6417 0001852  93.1702 266.9640 13.15548226161302
ONEWEB-0718             
1 56081U 23043AM  26196.18077729 -.00000047  00000+0 -15934-3 0  9994
2 56081  87.8989 253.6231 0002528  92.6967 267.4453 13.15549569160117
ONEWEB-0561             
1 56710U 23068A   26196.15192014  .00000153  00000+0  34316-3 0  9993
2 56710  87.9185 268.8713 0001750 104.3158 255.8170 13.20770193153199
ONEWEB-0668             
1 56711U 23068B   26196.09181125  .00000107  00000+0  24608-3 0  9990
2 56711  87.9081 223.2293 0002367  79.4370 280.7028 13.16595793155452
ONEWEB-0676             
1 56712U 23068C   26196.09973531 -.00000025  00000+0 -98701-4 0  9998
2 56712  87.9080 223.2343 0001733  91.7435 268.3895 13.16594545155372
ONEWEB-0677             
1 56713U 23068D   26196.14015090  .00000069  00000+0  13817-3 0  9992
2 56713  87.9185 268.8644 0001856  89.1393 270.9953 13.20772166153495
ONEWEB-0678             
1 56714U 23068E   26196.14909434  .00000211  00000+0  52673-3 0  9999
2 56714  87.8994 253.6244 0002036 105.5263 254.6092 13.15548200152969
ONEWEB-0679             
1 56715U 23068F   26196.13456284  .00000081  00000+0  17828-3 0  9997
2 56715  87.9079 223.2187 0001965  77.7222 282.4128 13.16594054155409
ONEWEB-0680             
1 56716U 23068G   26196.17925552 -.00000031  00000+0 -10768-3 0  9994
2 56716  87.9242 238.4023 0002244  80.9680 279.1708 13.21825674154793
ONEWEB-0681             
1 56717U 23068H   26196.15990675  .00000092  00000+0  19086-3 0  9998
2 56717  87.9238 238.4065 0001096  93.0592 267.0667 13.21827550154780
ONEWEB-0682             
1 56718U 23068J   26196.17286314  .00000017  00000+0  10740-4 0  9995
2 56718  87.8994 253.6194 0002183  82.0489 278.0889 13.15548257153135
